SAUDISAT 1C (SO-50)     
1 27607U 02058C   26160.33310559  .00000929  00000+0  12688-3 0  9998
2 27607  64.5504 153.2855 0075434 263.9300  95.3207 14.83029515263299
SAUDISAT 2              
1 28371U 04025F   26160.40444944  .00000242  00000+0  65237-4 0  9994
2 28371  98.5506 160.1853 0023924 323.1050  36.8500 14.56679290164613
SAUDISAT 3              
1 31118U 07012B   26160.43842613  .00000244  00000+0  47679-4 0  9996
2 31118  98.1453 110.8342 0013330 250.7072 109.2693 14.71421134 26600
PISAT                   
1 41784U 16059B   26160.51503088  .00000870  00000+0  15581-3 0  9997
2 41784  97.8178 161.2976 0027837 228.0857 131.7975 14.68970440518614
FLYING LAPTOP           
1 42831U 17042G   26160.51976484  .00003742  00000+0  29577-3 0  9999
2 42831  97.4659 316.3501 0019178 146.7458 213.4976 15.01096612485303
SALSAT                  
1 46495U 20068K   26160.49232389  .00007245  00000+0  25454-3 0  9999
2 46495  97.8855 163.0891 0008742 339.5990  20.4898 15.29688082314186
